HST                     
1 20580U 90037B   26166.12212987  .00005845  00000+0  18362-3 0  9991
2 20580  28.4718  94.6872 0001878 120.6716 239.4065 15.30726834788258
POLAR                   
1 23802U 96013A   26164.95607492  .00000147  00000+0  00000+0 0  9995
2 23802  79.8497 227.0901 6467269 209.1905  89.6377  1.29846142144813
SWAS                    
1 25560U 98071A   26165.89535660  .00002968  00000+0  19055-3 0  9992
2 25560  69.8957 233.4296 0008676 262.5836  97.4342 15.09615466496924
CXO                     
1 25867U 99040B   26166.73124906  .00000579  00000+0  00000+0 0  9992
2 25867  56.1776 116.6293 7842889 310.3072   0.0447  0.37804362 17312
XMM-NEWTON              
1 25989U 99066A   26167.35230823  .00000036  00000+0  00000+0 0  9998
2 25989  64.4922 282.9960 4674559  64.9442   0.1261  0.50126459 23004
TERRA                   
1 25994U 99068A   26166.16986764  .00000325  00000+0  75084-4 0  9996
2 25994  97.9457 215.7960 0001427 197.0393 231.2884 14.61101583409313
CLUSTER II-FM7 (SAMBA)  
1 26410U 00041A   26168.13893488  .00013373  00000+0  00000+0 0  9990
2 26410 149.9159  50.9864 9054007 268.1291 359.6411  0.44868040 20307
CLUSTER II-FM8 (TANGO)  
1 26464U 00045B   26163.93708266  .00006608  00000+0  00000+0 0  9998
2 26464 150.1451  51.3058 9053762 268.2475   3.0098  0.44426436 20295
ODIN                    
1 26702U 01007A   26166.06193163  .00160229  00000+0  10555-2 0  9992
2 26702  97.3837 206.8690 0006712 145.1366 215.0340 15.75155349389065
TIMED                   
1 26998U 01055B   26165.93411926  .00001019  00000+0  96052-4 0  9996
2 26998  74.0674 239.5549 0000991 339.8228  20.2917 14.95290910330484
CORIOLIS                
1 27640U 03001A   26166.01276387  .00000079  00000+0  57681-4 0  9994
2 27640  98.7125 172.9307 0013256 215.3915 144.6383 14.19944273213914
SORCE                   
1 27651U 03004A   26166.01430323  .00002604  00000+0  19706-3 0  9992
2 27651  39.9911 274.0755 0016736  32.6972 327.4855 15.03703956271572
MOST                    
1 27843U 03031D   26166.02898583  .00000049  00000+0  42525-4 0  9999
2 27843  98.7045 173.7851 0008705 257.4744 102.5459 14.21322061190406
SCISAT 1                
1 27858U 03036A   26166.13221554  .00000418  00000+0  58127-4 0  9995
2 27858  73.9285 175.4258 0008596 245.0417 114.9867 14.81445803231144
SWIFT                   
1 28485U 04047A   26165.76985057  .00046339  00000+0  38801-3 0  9996
2 28485  20.5510 203.5475 0001644 246.2940 113.7333 15.68119780186484
HINODE (SOLAR-B)        
1 29479U 06041A   26166.00515110  .00000593  00000+0  11040-3 0  9991
2 29479  98.0549 182.1899 0016081 297.3047  62.6521 14.68620420 54558
SHIJIAN-6 02A (SJ-6 02A)
1 29505U 06046A   26166.17862388  .00006000  00000+0  30772-3 0  9998
2 29505  97.6361 207.2293 0004282 129.9307 230.2303 15.16924782 71968
SHIJIAN-6 02B (SJ-6 02B)
1 29506U 06046B   26166.21362784  .00001385  00000+0  11191-3 0  9994
2 29506  97.7159 195.2845 0015282  66.1922 294.0902 15.01373416 70442
FGRST (GLAST)           
1 33053U 08029A   26165.54396426  .00002818  00000+0  99725-4 0  9996
2 33053  25.5810 222.8369 0007607 296.5935  63.3824 15.23937341995432
SDO                     
1 36395U 10005A   26165.43714222 -.00000094  00000+0  00000+0 0  9999
2 36395  34.6460  86.3840 0001714  49.5303 182.1298  1.00269990 60033
CRYOSAT 2               
1 36508U 10013A   26166.22066257  .00000170  00000+0  41582-4 0  9999
2 36508  92.0353 276.8235 0002162  88.7531 271.3924 14.51898469857791
X-SAT                   
1 37389U 11015C   26166.18957037  .00000203  00000+0  10369-3 0  9995
2 37389  98.3501 143.3078 0014068 354.4458   5.6565 14.25206400787391
GCOM-W1 (SHIZUKU)       
1 38337U 12025A   26166.10044249  .00000395  00000+0  97673-4 0  9991
2 38337  98.2022 106.6877 0001817  76.6011 294.1748 14.57122913748731
NUSTAR                  
1 38358U 12031A   26166.25002315  .00017918  00000+0  10507-2 0  9993
2 38358   6.0285  48.6571 0006415  79.5555 258.0967 15.08784215  1305
NEOSSAT                 
1 39089U 13009D   26165.77048623  .00000125  00000+0  57986-4 0  9995
2 39089  98.4176 345.8606 0009833 251.8556 108.1560 14.35825638696392
BRITE-AUSTRIA           
1 39091U 13009F   26165.77031524  .00000147  00000+0  64593-4 0  9996
2 39091  98.3993 345.2659 0009062 244.6230 115.4018 14.36541228696701
IRIS                    
1 39197U 13033A   26166.14465034  .00000877  00000+0  10660-3 0  9994
2 39197  97.9330   5.4281 0023684 328.7500  31.2305 14.85881563700077
HISAKI (SPRINT-A)       
1 39253U 13049A   26165.84560712  .00000132  00000+0  93062-4 0  9991
2 39253  29.7187 231.9181 0136865 357.8721   2.1261 13.55544544631108
CASSIOPE                
1 39265U 13055A   26165.99695375  .00046594 -47781-6  50998-3 0  9998
2 39265  80.9158  69.3815 0293439  69.7930 293.4597 15.25000830667332
STSAT-3                 
1 39422U 13066G   26166.18178148  .00002205  00000+0  16934-3 0  9999
2 39422  97.6216 136.1019 0011154  50.3174 309.9033 15.02747060683901
SWARM B                 
1 39451U 13067A   26166.16982859  .00002869  00000+0  10210-3 0  9999
2 39451  87.7434 342.9298 0003335  86.6048 273.5583 15.28539935682931
